Results
*******************************************************************************
 Revised: Aug 07, 2025                Skoll / (Saturn)                      647

 Newly discovered irregular Saturnian satellite
*******************************************************************************


*******************************************************************************
Ephemeris / API_USER Wed Apr 22 07:31:26 2026 Pasadena, USA      / Horizons    
*******************************************************************************
Target body name: Skoll (647)                     {source: sat456_merged_DE440}
Center body name: Earth (399)                     {source: sat456_merged_DE440}
Center-site name: GEOCENTRIC
*******************************************************************************
Start time      : A.D. 2020-Jan-01 00:00:00.0000 UT      
Stop  time      : A.D. 2020-Dec-20 00:00:00.0000 UT      
Step-size       : 1440 minutes
*******************************************************************************
Target pole/equ : undefined
Target radii    : undefined                                                    
Center geodetic : 0.0, 0.0, -6378.137             {E-lon(deg),Lat(deg),Alt(km)}
Center cylindric: 0.0, 0.0, 0.0                   {E-lon(deg),Dxy(km),Dz(km)}
Center pole/equ : ITRF93                          {East-longitude positive}
Center radii    : 6378.137, 6378.137, 6356.752 km {Equator_a, b, pole_c}       
Target primary  : Saturn
Vis. interferer : MOON (R_eq= 1737.400) km        {source: sat456_merged_DE440}
Rel. light bend : Sun                             {source: sat456_merged_DE440}
Rel. lght bnd GM: 1.3271E+11 km^3/s^2                                          
Atmos refraction: NO (AIRLESS)
RA format       : HMS
Time format     : CAL 
Calendar mode   : Mixed Julian/Gregorian
EOP file        : eop.260421.p260718                                           
EOP coverage    : DATA-BASED 1962-JAN-20 TO 2026-APR-21. PREDICTS-> 2026-JUL-17
Units conversion: 1 au= 149597870.700 km, c= 299792.458 km/s, 1 day= 86400.0 s 
Table cut-offs 1: Elevation (-90.0deg=NO ),Airmass (>38.000=NO), Daylight (NO )
Table cut-offs 2: Solar elongation (  0.0,180.0=NO ),Local Hour Angle( 0.0=NO )
Table cut-offs 3: RA/DEC angular rate (     0.0=NO )                           
**************************************************************************************************************************
 Date__(UT)__HR:MN     R.A._____(ICRF)_____DEC    APmag   S-brt             delta      deldot     S-O-T /r     S-T-O  Cnst
**************************************************************************************************************************
$$SOE
 2020-Apr-28 00:00     20 12 50.13 -19 47 00.4     n.a.    n.a.  9.99517721677422 -29.3783512   96.8712 /L    5.6456   Cap
 2020-Apr-29 00:00     20 12 54.36 -19 46 47.7     n.a.    n.a.  9.97822662098477 -29.3187186   97.8262 /L    5.6352   Cap
 2020-Apr-30 00:00     20 12 58.20 -19 46 36.3     n.a.    n.a.  9.96131286044362 -29.2508113   98.7822 /L    5.6232   Cap
 2020-May-01 00:00     20 13 01.64 -19 46 26.2     n.a.    n.a.  9.94444067882309 -29.1747567   99.7392 /L    5.6096   Cap
 2020-May-02 00:00     20 13 04.69 -19 46 17.3     n.a.    n.a.  9.92761473780681 -29.0907110  100.6973 /L    5.5944   Cap
 2020-May-03 00:00     20 13 07.33 -19 46 09.7     n.a.    n.a.  9.91083960137972 -28.9988550  101.6564 /L    5.5776   Cap
 2020-May-04 00:00     20 13 09.58 -19 46 03.5     n.a.    n.a.  9.89411972460930 -28.8993824  102.6165 /L    5.5591   Cap
 2020-May-05 00:00     20 13 11.43 -19 45 58.4     n.a.    n.a.  9.87745945206341 -28.7924778  103.5777 /L    5.5391   Cap
 2020-May-06 00:00     20 13 12.89 -19 45 54.7     n.a.    n.a.  9.86086303125384 -28.6782873  104.5400 /L    5.5174   Cap
 2020-May-07 00:00     20 13 13.94 -19 45 52.2     n.a.    n.a.  9.84433464368615 -28.5568891  105.5034 /L    5.4942   Cap
 2020-May-08 00:00     20 13 14.61 -19 45 51.1     n.a.    n.a.  9.82787845012589 -28.4282755  106.4679 /L    5.4693   Cap
 2020-May-09 00:00     20 13 14.87 -19 45 51.2     n.a.    n.a.  9.81149864026805 -28.2923564  107.4335 /L    5.4428   Cap
 2020-May-10 00:00     20 13 14.74 -19 45 52.6     n.a.    n.a.  9.79519947442734 -28.1489825  108.4003 /L    5.4147   Cap
 2020-May-11 00:00     20 13 14.20 -19 45 55.2     n.a.    n.a.  9.77898530827883 -27.9979784  109.3684 /L    5.3851   Cap
 2020-May-12 00:00     20 13 13.28 -19 45 59.2     n.a.    n.a.  9.76286059875017 -27.8391732  110.3376 /L    5.3538   Cap
 2020-May-13 00:00     20 13 11.95 -19 46 04.4     n.a.    n.a.  9.74682989535744 -27.6724196  111.3081 /L    5.3208   Cap
 2020-May-14 00:00     20 13 10.23 -19 46 10.9     n.a.    n.a.  9.73089782374040 -27.4976015  112.2799 /L    5.2863   Cap
 2020-May-15 00:00     20 13 08.11 -19 46 18.7     n.a.    n.a.  9.71506906740561 -27.3146340  113.2529 /L    5.2502   Cap
 2020-May-16 00:00     20 13 05.60 -19 46 27.7     n.a.    n.a.  9.69934835132005 -27.1234576  114.2271 /L    5.2125   Cap
 2020-May-17 00:00     20 13 02.69 -19 46 38.0     n.a.    n.a.  9.68374042873574 -26.9240329  115.2026 /L    5.1732   Cap
 2020-May-18 00:00     20 12 59.38 -19 46 49.6     n.a.    n.a.  9.66825007109429 -26.7163357  116.1794 /L    5.1322   Cap
 2020-May-19 00:00     20 12 55.69 -19 47 02.5     n.a.    n.a.  9.65288206004035 -26.5003545  117.1574 /L    5.0897   Cap
 2020-May-20 00:00     20 12 51.60 -19 47 16.6     n.a.    n.a.  9.63764118025590 -26.2760906  118.1366 /L    5.0456   Cap
 2020-May-21 00:00     20 12 47.12 -19 47 31.9     n.a.    n.a.  9.62253221182198 -26.0435591  119.1171 /L    4.9999   Cap
 2020-May-22 00:00     20 12 42.26 -19 47 48.5     n.a.    n.a.  9.60755992101878 -25.8027932  120.0987 /L    4.9527   Cap
 2020-May-23 00:00     20 12 37.00 -19 48 06.3     n.a.    n.a.  9.59272904884898 -25.5538480  121.0816 /L    4.9039   Cap
 2020-May-24 00:00     20 12 31.37 -19 48 25.4     n.a.    n.a.  9.57804429707556 -25.2968050  122.0656 /L    4.8535   Cap
 2020-May-25 00:00     20 12 25.36 -19 48 45.6     n.a.    n.a.  9.56351031212429 -25.0317748  123.0508 /L    4.8016   Cap
 2020-May-26 00:00     20 12 18.96 -19 49 07.1     n.a.    n.a.  9.54913166768392 -24.7588986  124.0372 /L    4.7482   Cap
 2020-May-27 00:00     20 12 12.20 -19 49 29.7     n.a.    n.a.  9.53491284712531 -24.4783477  125.0246 /L    4.6933   Cap
 2020-May-28 00:00     20 12 05.06 -19 49 53.6     n.a.    n.a.  9.52085822691573 -24.1903204  126.0132 /L    4.6368   Cap
 2020-May-29 00:00     20 11 57.56 -19 50 18.6     n.a.    n.a.  9.50697206212680 -23.8950378  127.0029 /L    4.5789   Cap
 2020-May-30 00:00     20 11 49.69 -19 50 44.7     n.a.    n.a.  9.49325847513754 -23.5927372  127.9936 /L    4.5195   Cap
 2020-May-31 00:00     20 11 41.46 -19 51 12.0     n.a.    n.a.  9.47972144890074 -23.2836622  128.9853 /L    4.4586   Cap
 2020-Jun-01 00:00     20 11 32.87 -19 51 40.4     n.a.    n.a.  9.46636482670468 -22.9680501  129.9782 /L    4.3963   Cap
 2020-Jun-02 00:00     20 11 23.94 -19 52 09.9     n.a.    n.a.  9.45319232083397 -22.6461142  130.9720 /L    4.3325   Cap
 2020-Jun-03 00:00     20 11 14.65 -19 52 40.5     n.a.    n.a.  9.44020753221402 -22.3180235  131.9669 /L    4.2674   Cap
 2020-Jun-04 00:00     20 11 05.03 -19 53 12.2     n.a.    n.a.  9.42741398131112 -21.9838851  132.9628 /L    4.2009   Cap
 2020-Jun-05 00:00     20 10 55.06 -19 53 44.9     n.a.    n.a.  9.41481514717740 -21.6437348  133.9598 /L    4.1330   Cap
 2020-Jun-06 00:00     20 10 44.75 -19 54 18.7     n.a.    n.a.  9.40241450786481 -21.2975424  134.9579 /L    4.0637   Cap
 2020-Jun-07 00:00     20 10 34.12 -19 54 53.5     n.a.    n.a.  9.39021557371615 -20.9452306  135.9571 /L    3.9931   Cap
 2020-Jun-08 00:00     20 10 23.15 -19 55 29.3     n.a.    n.a.  9.37822190682423 -20.5867021  136.9573 /L    3.9211   Cap
 2020-Jun-09 00:00     20 10 11.87 -19 56 06.1     n.a.    n.a.  9.36643712453758 -20.2218667  137.9587 /L    3.8479   Cap
 2020-Jun-10 00:00     20 10 00.26 -19 56 43.9     n.a.    n.a.  9.35486488972864 -19.8506593  138.9612 /L    3.7734   Cap
 2020-Jun-11 00:00     20 09 48.34 -19 57 22.6     n.a.    n.a.  9.34350889327887 -19.4730486  139.9647 /L    3.6975   Cap
 2020-Jun-12 00:00     20 09 36.10 -19 58 02.2     n.a.    n.a.  9.33237283429705 -19.0890369  140.9694 /L    3.6205   Cap
 2020-Jun-13 00:00     20 09 23.56 -19 58 42.8     n.a.    n.a.  9.32146040193326 -18.6986553  141.9752 /L    3.5422   Cap
 2020-Jun-14 00:00     20 09 10.73 -19 59 24.3     n.a.    n.a.  9.31077526059278 -18.3019574  142.9820 /L    3.4627   Cap
 2020-Jun-15 00:00     20 08 57.59 -20 00 06.6     n.a.    n.a.  9.30032103870922 -17.8990134  143.9899 /L    3.3820   Cap
 2020-Jun-16 00:00     20 08 44.17 -20 00 49.8     n.a.    n.a.  9.29010132021739 -17.4899067  144.9989 /L    3.3001   Cap
 2020-Jun-17 00:00     20 08 30.46 -20 01 33.8     n.a.    n.a.  9.28011963735437 -17.0747331  146.0089 /L    3.2171   Cap
 2020-Jun-18 00:00     20 08 16.48 -20 02 18.6     n.a.    n.a.  9.27037946323878 -16.6536020  147.0199 /L    3.1329   Cap
 2020-Jun-19 00:00     20 08 02.22 -20 03 04.2     n.a.    n.a.  9.26088420278468 -16.2266410  148.0318 /L    3.0477   Cap
 2020-Jun-20 00:00     20 07 47.71 -20 03 50.6     n.a.    n.a.  9.25163718070862 -15.7940013  149.0448 /L    2.9614   Cap
 2020-Jun-21 00:00     20 07 32.93 -20 04 37.7     n.a.    n.a.  9.24264162601444 -15.3558640  150.0586 /L    2.8741   Cap
 2020-Jun-22 00:00     20 07 17.90 -20 05 25.5     n.a.    n.a.  9.23390065322498 -14.9124451  151.0733 /L    2.7858   Cap
 2020-Jun-23 00:00     20 07 02.64 -20 06 14.0     n.a.    n.a.  9.22541724170479 -14.4639967  152.0888 /L    2.6964   Sgr
 2020-Jun-24 00:00     20 06 47.13 -20 07 03.2     n.a.    n.a.  9.21719421540528 -14.0108038  153.1052 /L    2.6062   Sgr
 2020-Jun-25 00:00     20 06 31.40 -20 07 53.0     n.a.    n.a.  9.20923422588095 -13.5531766  154.1223 /L    2.5150   Sgr
